NUSTAR                  
1 38358U 12031A   17346.15771949  .00000977  00000-0  28914-4 0  9999
2 38358   6.0264  97.4908 0012066 335.3396  24.6156 14.87893834298997
